OBJECT_NAME,OBJECT_ID,EPOCH,MEAN_MOTION,ECCENTRICITY,INCLINATION,RA_OF_ASC_NODE,ARG_OF_PERICENTER,MEAN_ANOMALY,EPHEMERIS_TYPE,CLASSIFICATION_TYPE,NORAD_CAT_ID,ELEMENT_SET_NO,REV_AT_EPOCH,BSTAR,MEAN_MOTION_DOT,MEAN_MOTION_DDOT
H-2A R/B,2006-002B,2026-06-11T09:15:28.905408,15.17987423,.0049634,98.2553,317.6909,282.5768,76.9915,0,U,28932,999,10864,.27215538E-3,.5627E-4,0
RESURS-DK 1,2006-021A,2026-06-11T14:45:23.708736,15.13192789,.00066764,69.9338,353.9772,296.0676,63.9802,0,U,29228,999,10173,.1318948E-3,.2239E-4,0
CZ-4B R/B,2006-046C,2026-06-11T13:59:34.145376,15.17743444,.00311943,97.5460,207.2073,303.2653,56.5593,0,U,29507,999,7428,.17812026E-3,.3568E-4,0
CZ-2C R/B,2007-010B,2026-06-11T06:47:44.295648,14.20274873,.00593733,98.4093,270.9230,23.2361,337.1481,0,U,31114,999,99300,.44431509E-4,.56E-6,0
COSMO-SKYMED 1,2007-023A,2026-06-11T14:05:57.897024,14.97073132,.00009942,97.8849,354.3971,88.0018,272.1318,0,U,31598,999,2895,.18756127E-3,.2102E-4,0
COSMOS 2428,2007-029A,2026-06-11T14:55:06.561408,14.12929203,.00072244,70.9372,6.1639,145.7438,214.4150,0,U,31792,999,97736,-.53044141E-4,-.147E-5,0
SL-16 R/B,2007-029B,2026-06-11T14:17:15.163296,14.14852189,.0002223,70.9764,334.9835,259.4320,163.8953,0,U,31793,999,97865,.17406808E-3,.288E-5,0
KORONAS-FOTON,2009-003A,2026-06-11T12:15:44.137728,15.45607253,.00110706,82.4289,178.1802,166.2492,193.9060,0,U,33504,999,96022,.21864154E-3,.10583E-3,0
CZ-2C R/B,2011-030B,2026-06-11T15:49:14.227680,14.81457875,.00534511,97.8653,118.1452,45.6750,130.5247,0,U,37731,999,80400,.14547527E-3,.1113E-4,0
H-2A R/B,2012-025E,2026-06-11T12:53:56.029920,14.95685625,.00440325,98.4815,137.2171,7.6785,352.5099,0,U,38341,999,76224,.2680705E-3,.297E-4,0
SHIJIAN-16 (SJ-16),2013-057A,2026-06-11T14:37:05.268000,14.92599008,.0016917,74.9737,7.2488,243.7733,116.1717,0,U,39358,999,68551,.12774258E-3,.1288E-4,0
SL-4 R/B,2014-021B,2026-06-11T10:12:15.136416,15.41833581,.00914593,51.6055,238.9984,85.0382,276.1037,0,U,39679,999,67072,.21182637E-3,.10157E-3,0
ALOS-2,2014-029A,2026-06-11T15:51:42.712992,14.79472533,.00016401,97.9210,259.9038,89.2290,270.9110,0,U,39766,999,65076,.17641361E-3,.1266E-4,0
YAOGAN-29,2015-069A,2026-06-11T15:29:24.426240,14.83082519,.00028374,98.0035,191.2697,64.3459,295.8047,0,U,41038,999,56980,.11904945E-3,.915E-5,0
ASTRO-H (HITOMI),2016-012A,2026-06-11T03:40:24.536064,15.10484459,.00096914,30.9976,113.1571,193.5931,166.4447,0,U,41337,999,56637,.12121007E-3,.2143E-4,0
HXMT (HUIYAN),2017-034A,2026-06-11T13:02:05.213760,15.18441281,.0030215,43.0133,214.4686,110.0181,250.3925,0,U,42758,999,49680,.19424243E-3,.3875E-4,0
SAOCOM 1A,2018-076A,2026-06-11T14:24:12.347424,14.82143013,.0001559,97.8888,349.4303,80.2921,279.8469,0,U,43641,999,41527,.63745739E-4,.455E-5,0
H-2A R/B,2018-084L,2026-06-11T14:57:39.536928,15.44941664,.00240184,98.8594,40.2987,58.8983,301.4613,0,U,43682,999,42026,.4119711E-3,.19502E-3,0
SAOCOM 1B,2020-059A,2026-06-11T15:09:13.512960,14.82167461,.00015011,97.8891,348.5559,82.0036,278.1348,0,U,46265,999,31266,.57137903E-4,.403E-5,0
CSS (TIANHE),2021-035A,2026-06-11T12:54:26.830656,15.60566891,.0008209,41.4693,356.3769,31.5834,328.5496,0,U,48274,999,29228,.19806993E-3,.16554E-3,0
COSMOS 2550,2021-056A,2026-06-08T19:23:25.914048,15.33755463,.0008705,67.1416,125.2525,266.0377,93.9783,0,U,48865,999,27743,.19790476E-3,.631E-4,0
CZ-2C R/B,2022-058K,2026-06-11T13:08:16.385568,15.61464510,.00328087,50.1845,192.8563,244.4691,115.2888,0,U,52794,999,22476,.37052076E-3,.32812E-3,0
CZ-2C R/B,2022-132E,2026-06-11T13:08:56.015520,15.70871804,.00167406,97.2899,169.3229,101.4335,258.8810,0,U,54039,999,20506,.48303329E-3,.60778E-3,0
GSLV R/B,2022-138AN,2026-06-11T10:29:01.043232,14.97229898,.00220064,87.3795,134.9153,163.4033,196.7925,0,U,54149,999,19795,.14358955E-3,.1698E-4,0
XRISM,2023-137A,2026-06-11T01:16:21.757440,15.12412932,.00079432,31.0028,39.3338,262.6424,97.3312,0,U,57800,999,15193,.24618033E-3,.4483E-4,0
ACS3,2024-077B,2026-06-11T12:49:49.247328,13.93897959,.0060015,97.1682,82.5854,68.1976,292.5561,0,U,59588,999,10725,.53553228E-2,.7151E-4,0
CZ-8A R/B,2025-231K,2026-06-11T11:05:27.947328,14.30153303,.01164724,50.0047,63.6729,203.8571,155.6919,0,U,66004,999,3412,.45222605E-4,-.37E-6,0
SZ-21 MODULE,2025-246C,2026-06-11T04:42:51.675552,15.75880017,.00071055,41.4739,344.6241,312.3917,47.6325,0,U,66515,999,3279,.26187136E-3,.4164E-3,0
